satname,norad_id,inclination_deg,eccentricity,mean_motion_rev_per_day,perigee_km,apogee_km,l1,l2
STARLINK-1008,44714,53.1559,0.0001253,15.31037478,471.85723913838956,473.57406281272506,1 44714U 19074B   26039.20033558  .00005088  00000+0  17918-3 0  9996,2 44714  53.1559 315.9143 0001253 104.6658 255.4482 15.31037478344355
STARLINK-1012,44718,53.1605,0.0001419,15.30197157,474.25106625481567,476.1960499812103,1 44718U 19074F   26039.16457855  .00000807  00000+0  39391-4 0  9999,2 44718  53.1605 315.9493 0001419  94.1567 265.9596 15.30197157344346
STARLINK-1017,44723,53.0464,0.0003067,15.21726628,498.52263715294794,502.7420742757431,1 44723U 19074L   26039.13930479  .00025210  00000+0  11094-2 0  9993,2 44723  53.0464 307.5140 0003067 107.2244 252.9087 15.21726628344464
STARLINK-1019,44724,53.0491,0.001066,15.72620391,344.23747396678664,358.58487067016904,1 44724U 19074M   26039.91670139  .00127020  00000+0  91534-3 0  9994,2 44724  53.0491 280.5047 0010660  99.1177 310.1395 15.72620391  6013
STARLINK-1020,44725,53.0547,0.0001304,15.06403313,546.2983399611521,548.1044682169386,1 44725U 19074N   26039.22664597  .00000783  00000+0  71427-4 0  9996,2 44725  53.0547 338.8851 0001304  79.0079 281.1057 15.06403313344027
STARLINK-1031,44736,53.0439,0.0005937,15.78427203,330.9107996961875,338.88185546935983,1 44736U 19074Z   26039.91670139  .00128531  00000+0  72014-3 0  9997,2 44736  53.0439 265.4214 0005937 131.0300  93.9418 15.78427203  6038
STARLINK-1036,44741,53.0567,0.0006224,15.49863119,412.89676458245594,421.35550813459395,1 44741U 19074AE  26039.19733376  .00106299  00000+0  18556-2 0  9993,2 44741  53.0567 330.6367 0006224 113.9519 246.2142 15.49863119344143
STARLINK-1039,44744,53.0503,0.0006758,15.19229899,503.5129888368365,512.8205169892744,1 44744U 19074AH  26039.09786319  .00047499  00000+0  22266-2 0  9999,2 44744  53.0503 350.8351 0006758  89.3558 270.8211 15.19229899343859
STARLINK-1042,44747,53.0435,0.0003466,15.48285593,419.38424596374534,424.0979214513718,1 44747U 19074AL  26039.81311601  .00024061  00000+0  45519-3 0  9997,2 44747  53.0435 233.1722 0003466 100.8253 259.3144 15.48285593345590
STARLINK-1043,44748,53.0543,0.0002702,15.5167204,410.0092316734663,413.678537343455,1 44748U 19074AM  26039.11218489  .00032736  00000+0  54650-3 0  9995,2 44748  53.0543 336.9807 0002702  59.1758 300.9517 15.51672040344053
STARLINK-1046,44751,53.0566,0.0007594,15.4162573,436.1320877272001,446.4894650099477,1 44751U 19074AQ  26039.25797367  .00022134  00000+0  52541-3 0  9999,2 44751  53.0566 350.4638 0007594  84.8922 275.2948 15.41625730343871
STARLINK-1047,44752,53.0703,0.0004891,15.31882421,466.84674188265035,473.5457814792271,1 44752U 19074AR  26039.07826121  .00011847  00000+0  39064-3 0  9995,2 44752  53.0703 284.2599 0004891 118.0243 242.1252 15.31882421344804
STARLINK-1048,44753,53.055,0.0005589,15.49892049,413.24375136747494,420.83940198048003,1 44753U 19074AS  26039.91670139  .00034881  00000+0  61927-3 0  9991,2 44753  53.0550 307.1254 0005589 100.0994 282.4895 15.49892049  5920
STARLINK-1053,44758,53.0315,0.0001283,15.79998911,329.5830067640809,331.3044285762353,1 44758U 19074AX  26039.91670139  .00209693  00000+0  10826-2 0  9992,2 44758  53.0315 228.9998 0001283 215.6150  73.6277 15.79998911  5970
STARLINK-1060,44765,53.0322,0.000569,16.13962517,232.23186973856536,239.75875230851125,1 44765U 19074BE  26039.69742858  .01102710  81122-3  87987-3 0  9997,2 44765  53.0322 267.4499 0005690 265.0265  95.0120 16.13962517345066
STARLINK-1063,44768,53.1596,0.0001413,15.30183125,474.2970698236577,476.23384135760716,1 44768U 19074BH  26039.91670139  .00014578  00000+0  50361-3 0  9998,2 44768  53.1596 353.0440 0001413  96.4352  88.6675 15.30183125  5843
STARLINK-1067,44771,53.0552,0.0001517,15.51724954,410.6595075262976,412.7195408937423,1 44771U 19074BL  26039.91670139  .00247225  00000+0  39599-2 0  9998,2 44771  53.0552 343.1334 0001517  82.6298  74.6898 15.51724954  5959
STARLINK-1068,44772,53.0531,0.0005748,15.57136602,392.0551493193543,399.842638462972,1 44772U 19074BM  26039.91670139  .00077720  00000+0  10479-2 0  9996,2 44772  53.0531 320.0751 0005748 109.9104 206.5871 15.57136602  5830
STARLINK-1112,44925,53.0402,0.0002967,15.87496024,307.32158624395015,311.28991477210184,1 44925U 20001M   26039.91670139  .00272617  00000+0  97884-3 0  9996,2 44925  53.0402  29.1985 0002967  57.6355   0.8695 15.87496024  5985
STARLINK-1114,44927,53.0508,0.0006755,15.45434595,425.5024349699106,434.7003650483239,1 44927U 20001P   26039.81337755  .00067825  00000+0  13906-2 0  9996,2 44927  53.0508 107.4389 0006755  11.9303 348.1861 15.45434595335626
STARLINK-1123,44930,53.0537,0.0001595,15.06386199,546.1492564969176,548.3584561800899,1 44930U 20001S   26039.53074058  .00003303  00000+0  24065-3 0  9993,2 44930  53.0537 117.5240 0001595  74.3857 285.7308 15.06386199335450
STARLINK-1144,44933,53.0299,0.0004422,16.12193047,237.9070983744823,243.76091633338547,1 44933U 20001V   26039.45402762  .01106251  78647-3  99782-3 0  9995,2 44933  53.0299   0.2406 0004422  99.4831 260.6704 16.12193047338385
STARLINK-1094,44941,53.1607,0.0001451,15.30191588,474.2457612203889,476.23461127983774,1 44941U 20001AD  26039.42245647  .00000453  00000+0  27440-4 0  9991,2 44941  53.1607  95.5062 0001451  92.3262 267.7905 15.30191588335758
STARLINK-1122,44949,53.1565,0.0001383,15.29356857,476.7855320320987,478.6818658674274,1 44949U 20001AM  26039.38174449  .00003222  00000+0  12394-3 0  9993,2 44949  53.1565  95.7240 0001383 104.4125 255.7029 15.29356857335749
STARLINK-1080,44961,53.053,0.0007705,15.43223574,431.3519977681208,441.853511730189,1 44961U 20001AZ  26039.37283149  .00019726  00000+0  44513-3 0  9998,2 44961  53.0530  67.7578 0007705  13.6027 346.5184 15.43223574336144
STARLINK-1090,44968,53.0546,0.0001488,15.06404481,546.1673345308391,548.2283141745665,1 44968U 20001BG  26039.36855556  .00001918  00000+0  14759-3 0  9994,2 44968  53.0546  78.2485 0001488  85.2633 274.8526 15.06404481335994
STARLINK-1132,45044,53.1589,0.0004651,15.39596803,444.1261991555393,450.4752213135989,1 45044U 20006A   26039.91670139  .00126657  00000+0  31258-2 0  9998,2 45044  53.1589  29.9693 0004651  86.9715 144.7199 15.39596803  5829
STARLINK-1131,45047,53.1571,0.0001483,15.29361315,476.70365231606684,478.737099613777,1 45047U 20006D   26039.33542724  .00000165  00000+0  18043-4 0  9999,2 45047  53.1571  57.2845 0001483  83.0426 277.0743 15.29361315332053
STARLINK-1134,45048,53.0355,0.0007723,15.40049979,440.69142164692767,451.23192445732366,1 45048U 20006E   26039.33191675  .00114364  00000+0  27843-2 0  9998,2 45048  53.0355  17.5607 0007723  79.8724 280.3151 15.40049979332619
STARLINK-1156,45054,53.1545,0.0001537,15.29333255,476.75047777060627,478.8579941065336,1 45054U 20006L   26039.91670139  .00058881  00000+0  20381-2 0  9997,2 45054  53.1545  54.5705 0001537  87.0345 107.4305 15.29333255  5724
STARLINK-1159,45057,53.0486,0.0005249,15.72381992,348.55866513607,355.62405887050227,1 45057U 20006P   26039.91670139  .00239617  00000+0  17213-2 0  9998,2 45057  53.0486  18.6338 0005249  38.7587 235.1656 15.72381992  5950
STARLINK-1166,45060,53.0548,0.0004831,15.41796354,437.5134155409942,444.1018798596024,1 45060U 20006S   26039.82801294  .00094143  00000+0  21718-2 0  9998,2 45060  53.0548  49.8230 0004831  44.3947 315.7444 15.41796354332208
STARLINK-1169,45061,53.1504,9.95e-05,15.28378257,479.97741752715683,481.34231810385245,1 45061U 20006T   26039.91670139  .01099373  00000+0  36328-1 0  9994,2 45061  53.1504  54.6027 0000995  52.3677 304.9331 15.28378257  5852
STARLINK-1171,45062,53.0486,0.0003283,15.51871965,409.03175166733763,413.48967020433884,1 45062U 20006U   26039.91670139  .00160207  00000+0  25836-2 0  9992,2 45062  53.0486  28.5619 0003283 302.6058  61.4235 15.51871965  5909
STARLINK-1133,45064,53.1607,0.0001336,15.30192,474.32334505365,476.1545671091144,1 45064U 20006W   26039.27379959  .00000549  00000+0  30663-4 0  9997,2 45064  53.1607  34.4361 0001336  98.9020 261.2132 15.30192000332371
STARLINK-1167,45071,53.1607,0.0001841,15.29352463,476.4846625170903,479.00899894356553,1 45071U 20006AD  26039.41632388  .00000599  00000+0  33087-4 0  9997,2 45071  53.1607  33.6572 0001841  60.6944 299.4240 15.29352463332390
STARLINK-1168,45072,53.1616,0.0001906,15.29345529,476.4608182009915,479.0742890168285,1 45072U 20006AE  26039.36078093 -.00000064  00000+0  10124-4 0  9994,2 45072  53.1616  33.9722 0001906  98.1053 262.0164 15.29345529332385
STARLINK-1172,45074,53.1601,0.0001683,15.30193905,474.0798458349864,476.38669026721163,1 45074U 20006AG  26039.44655392 -.00004079  00000+0 -12567-3 0  9991,2 45074  53.1601  33.6555 0001683  76.6708 283.4481 15.30193905332393
STARLINK-1153,45080,53.1608,0.0001418,15.29369858,476.72268795206946,478.6670018632849,1 45080U 20006AN  26039.27003278  .00004986  00000+0  18494-3 0  9999,2 45080  53.1608  34.2449 0001418 104.2459 255.8699 15.29369858332375
STARLINK-1151,45081,53.0528,0.00118,15.5370074,397.9268480205501,413.9372509773675,1 45081U 20006AP  26039.91670139  .00152887  00000+0  23053-2 0  9997,2 45081  53.0528  19.5966 0011800  48.5307  20.9952 15.53700740  5752
STARLINK-1185,45087,53.0992,0.0001156,15.1730981,513.1783436900132,514.7718000010245,1 45087U 20006AV  26039.91670139  .00096429  00000+0  47310-2 0  9994,2 45087  53.0992  15.4300 0001156  71.9421 308.6667 15.17309810  5639
STARLINK-1183,45088,53.091,0.0002499,15.1538936,518.0729558511857,521.5205431391832,1 45088U 20006AW  26039.91670139  .00093629  00000+0  48538-2 0  9997,2 45088  53.0910  15.5939 0002499  87.6610  82.4954 15.15389360  5850
STARLINK-1152,45096,53.0416,0.0007145,15.34797722,456.63444597439957,466.4083178021174,1 45096U 20006BE  26039.13220780  .00072598  00000+0  21107-2 0  9998,2 45096  53.0416 345.4797 0007145  91.1774 269.0046 15.34797722333047
